[{"OBJECT_NAME":"STARLINK-4037","OBJECT_ID":"2022-053H","EPOCH":"2026-03-06T07:04:12.129312","MEAN_MOTION":15.08837185,"ECCENTRICITY":0.00012901,"INCLINATION":53.2171,"RA_OF_ASC_NODE":169.3677,"ARG_OF_PERICENTER":93.4286,"MEAN_ANOMALY":266.6854,"EPHEMERIS_TYPE":0,"CLASSIFICATION_TYPE":"U","NORAD_CAT_ID":52663,"ELEMENT_SET_NO":999,"REV_AT_EPOCH":21053,"BSTAR":1.4305748e-5,"MEAN_MOTION_DOT":-6.0e-7,"MEAN_MOTION_DDOT":0},{"OBJECT_NAME":"STARLINK-4070","OBJECT_ID":"2022-053J","EPOCH":"2026-03-07T03:54:48.795264","MEAN_MOTION":15.08839127,"ECCENTRICITY":0.0001595,"INCLINATION":53.2158,"RA_OF_ASC_NODE":165.4648,"ARG_OF_PERICENTER":87.8358,"MEAN_ANOMALY":272.2817,"EPHEMERIS_TYPE":0,"CLASSIFICATION_TYPE":"U","NORAD_CAT_ID":52664,"ELEMENT_SET_NO":999,"REV_AT_EPOCH":21066,"BSTAR":0.0001078,"MEAN_MOTION_DOT":1.428e-5,"MEAN_MOTION_DDOT":0},{"OBJECT_NAME":"STARLINK-4064","OBJECT_ID":"2022-053K","EPOCH":"2026-03-07T00:17:33.573696","MEAN_MOTION":15.08838532,"ECCENTRICITY":0.0001227,"INCLINATION":53.2183,"RA_OF_ASC_NODE":166.1433,"ARG_OF_PERICENTER":80.4046,"MEAN_ANOMALY":279.7085,"EPHEMERIS_TYPE":0,"CLASSIFICATION_TYPE":"U","NORAD_CAT_ID":52665,"ELEMENT_SET_NO":999,"REV_AT_EPOCH":21064,"BSTAR":-1.8245e-5,"MEAN_MOTION_DOT":-5.78e-6,"MEAN_MOTION_DDOT":0},{"OBJECT_NAME":"STARLINK-4079","OBJECT_ID":"2022-053L","EPOCH":"2026-03-06T07:41:13.790400","MEAN_MOTION":15.08836659,"ECCENTRICITY":0.00012959,"INCLINATION":53.2173,"RA_OF_ASC_NODE":168.8614,"ARG_OF_PERICENTER":94.1686,"MEAN_ANOMALY":265.9454,"EPHEMERIS_TYPE":0,"CLASSIFICATION_TYPE":"U","NORAD_CAT_ID":52666,"ELEMENT_SET_NO":999,"REV_AT_EPOCH":21054,"BSTAR":-9.872506e-6,"MEAN_MOTION_DOT":-4.45e-6,"MEAN_MOTION_DDOT":0},{"OBJECT_NAME":"STARLINK-4076","OBJECT_ID":"2022-053M","EPOCH":"2026-03-07T00:12:14.614272","MEAN_MOTION":15.08844999,"ECCENTRICITY":0.0001358,"INCLINATION":53.2166,"RA_OF_ASC_NODE":166.1587,"ARG_OF_PERICENTER":84.1788,"MEAN_ANOMALY":275.9359,"EPHEMERIS_TYPE":0,"CLASSIFICATION_TYPE":"U","NORAD_CAT_ID":52667,"ELEMENT_SET_NO":999,"REV_AT_EPOCH":21064,"BSTAR":0.00015152,"MEAN_MOTION_DOT":2.125e-5,"MEAN_MOTION_DDOT":0},{"OBJECT_NAME":"STARLINK-4067","OBJECT_ID":"2022-053N","EPOCH":"2026-03-06T13:15:08.758080","MEAN_MOTION":15.08849945,"ECCENTRICITY":0.00012878,"INCLINATION":53.2162,"RA_OF_ASC_NODE":168.2088,"ARG_OF_PERICENTER":77.041,"MEAN_ANOMALY":283.0726,"EPHEMERIS_TYPE":0,"CLASSIFICATION_TYPE":"U","NORAD_CAT_ID":52668,"ELEMENT_SET_NO":999,"REV_AT_EPOCH":21057,"BSTAR":-1.2037189e-5,"MEAN_MOTION_DOT":-4.8e-6,"MEAN_MOTION_DDOT":0},{"OBJECT_NAME":"STARLINK-3972","OBJECT_ID":"2022-053P","EPOCH":"2026-03-06T06:27:06.913728","MEAN_MOTION":15.08837937,"ECCENTRICITY":0.00011008,"INCLINATION":53.2169,"RA_OF_ASC_NODE":169.4783,"ARG_OF_PERICENTER":82.102,"MEAN_ANOMALY":278.0097,"EPHEMERIS_TYPE":0,"CLASSIFICATION_TYPE":"U","NORAD_CAT_ID":52669,"ELEMENT_SET_NO":999,"REV_AT_EPOCH":21052,"BSTAR":8.2355395e-5,"MEAN_MOTION_DOT":1.023e-5,"MEAN_MOTION_DDOT":0},{"OBJECT_NAME":"STARLINK-4075","OBJECT_ID":"2022-053Q","EPOCH":"2026-03-06T13:20:26.886336","MEAN_MOTION":15.08844549,"ECCENTRICITY":0.00013203,"INCLINATION":53.2167,"RA_OF_ASC_NODE":168.2576,"ARG_OF_PERICENTER":87.903,"MEAN_ANOMALY":272.2113,"EPHEMERIS_TYPE":0,"CLASSIFICATION_TYPE":"U","NORAD_CAT_ID":52670,"ELEMENT_SET_NO":999,"REV_AT_EPOCH":21057,"BSTAR":9.4580539e-5,"MEAN_MOTION_DOT":1.218e-5,"MEAN_MOTION_DDOT":0},{"OBJECT_NAME":"STARLINK-4071","OBJECT_ID":"2022-053R","EPOCH":"2026-03-06T23:51:03.005856","MEAN_MOTION":15.08837739,"ECCENTRICITY":0.0001075,"INCLINATION":53.2174,"RA_OF_ASC_NODE":166.2226,"ARG_OF_PERICENTER":92.5892,"MEAN_ANOMALY":267.5223,"EPHEMERIS_TYPE":0,"CLASSIFICATION_TYPE":"U","NORAD_CAT_ID":52671,"ELEMENT_SET_NO":999,"REV_AT_EPOCH":21063,"BSTAR":4.4558e-5,"MEAN_MOTION_DOT":4.21e-6,"MEAN_MOTION_DDOT":0},{"OBJECT_NAME":"STARLINK-4073","OBJECT_ID":"2022-053S","EPOCH":"2026-03-07T00:06:56.735712","MEAN_MOTION":15.08839155,"ECCENTRICITY":0.0001218,"INCLINATION":53.2191,"RA_OF_ASC_NODE":166.1728,"ARG_OF_PERICENTER":112.4602,"MEAN_ANOMALY":247.6519,"EPHEMERIS_TYPE":0,"CLASSIFICATION_TYPE":"U","NORAD_CAT_ID":52672,"ELEMENT_SET_NO":999,"REV_AT_EPOCH":21063,"BSTAR":-0.00018566,"MEAN_MOTION_DOT":-3.241e-5,"MEAN_MOTION_DDOT":0},{"OBJECT_NAME":"STARLINK-3976","OBJECT_ID":"2022-053T","EPOCH":"2026-03-06T07:46:36.114240","MEAN_MOTION":15.08833565,"ECCENTRICITY":0.00012263,"INCLINATION":53.2179,"RA_OF_ASC_NODE":169.2292,"ARG_OF_PERICENTER":89.029,"MEAN_ANOMALY":271.0843,"EPHEMERIS_TYPE":0,"CLASSIFICATION_TYPE":"U","NORAD_CAT_ID":52673,"ELEMENT_SET_NO":999,"REV_AT_EPOCH":21053,"BSTAR":4.8735472e-5,"MEAN_MOTION_DOT":4.88e-6,"MEAN_MOTION_DDOT":0},{"OBJECT_NAME":"STARLINK-3936","OBJECT_ID":"2022-053U","EPOCH":"2026-03-07T00:01:38.513280","MEAN_MOTION":15.0884312,"ECCENTRICITY":0.0001113,"INCLINATION":53.2168,"RA_OF_ASC_NODE":166.1913,"ARG_OF_PERICENTER":89.5053,"MEAN_ANOMALY":270.6067,"EPHEMERIS_TYPE":0,"CLASSIFICATION_TYPE":"U","NORAD_CAT_ID":52674,"ELEMENT_SET_NO":999,"REV_AT_EPOCH":21064,"BSTAR":9.3044e-5,"MEAN_MOTION_DOT":1.193e-5,"MEAN_MOTION_DDOT":0},{"OBJECT_NAME":"STARLINK-3934","OBJECT_ID":"2022-053V","EPOCH":"2026-03-06T06:07:14.091744","MEAN_MOTION":15.08839556,"ECCENTRICITY":0.00011858,"INCLINATION":53.2159,"RA_OF_ASC_NODE":159.5408,"ARG_OF_PERICENTER":80.3264,"MEAN_ANOMALY":279.7863,"EPHEMERIS_TYPE":0,"CLASSIFICATION_TYPE":"U","NORAD_CAT_ID":52675,"ELEMENT_SET_NO":999,"REV_AT_EPOCH":21065,"BSTAR":-3.095079e-6,"MEAN_MOTION_DOT":-3.37e-6,"MEAN_MOTION_DDOT":0},{"OBJECT_NAME":"STARLINK-4006","OBJECT_ID":"2022-053W","EPOCH":"2026-03-05T14:22:39.405216","MEAN_MOTION":15.08828649,"ECCENTRICITY":0.0001182,"INCLINATION":53.2177,"RA_OF_ASC_NODE":172.483,"ARG_OF_PERICENTER":90.3294,"MEAN_ANOMALY":269.7833,"EPHEMERIS_TYPE":0,"CLASSIFICATION_TYPE":"U","NORAD_CAT_ID":52676,"ELEMENT_SET_NO":999,"REV_AT_EPOCH":21042,"BSTAR":9.6505e-5,"MEAN_MOTION_DOT":1.248e-5,"MEAN_MOTION_DDOT":0},{"OBJECT_NAME":"STARLINK-4074","OBJECT_ID":"2022-053Y","EPOCH":"2026-03-06T19:06:13.962816","MEAN_MOTION":15.08844899,"ECCENTRICITY":0.0001287,"INCLINATION":53.2178,"RA_OF_ASC_NODE":157.2187,"ARG_OF_PERICENTER":91.5639,"MEAN_ANOMALY":268.5501,"EPHEMERIS_TYPE":0,"CLASSIFICATION_TYPE":"U","NORAD_CAT_ID":52678,"ELEMENT_SET_NO":999,"REV_AT_EPOCH":21073,"BSTAR":-1.6036e-6,"MEAN_MOTION_DOT":-3.13e-6,"MEAN_MOTION_DDOT":0},{"OBJECT_NAME":"STARLINK-4031","OBJECT_ID":"2022-053Z","EPOCH":"2026-03-06T15:13:03.142560","MEAN_MOTION":15.08831369,"ECCENTRICITY":0.00013417,"INCLINATION":53.2174,"RA_OF_ASC_NODE":157.8407,"ARG_OF_PERICENTER":82.3803,"MEAN_ANOMALY":277.7341,"EPHEMERIS_TYPE":0,"CLASSIFICATION_TYPE":"U","NORAD_CAT_ID":52679,"ELEMENT_SET_NO":999,"REV_AT_EPOCH":21067,"BSTAR":0.00013614418,"MEAN_MOTION_DOT":1.879e-5,"MEAN_MOTION_DDOT":0}]
