STARLINK-4037           
1 52663U 22053H   26065.29458483 -.00000060  00000+0  14306-4 0  9990
2 52663  53.2171 169.3677 0001290  93.4286 266.6854 15.08837185210530
STARLINK-4070           
1 52664U 22053J   26066.16306476  .00001428  00000+0  10780-3 0  9991
2 52664  53.2158 165.4648 0001595  87.8358 272.2817 15.08839127210660
STARLINK-4064           
1 52665U 22053K   26066.01219414 -.00000578  00000+0 -18245-4 0  9993
2 52665  53.2183 166.1433 0001227  80.4046 279.7085 15.08838532210640
STARLINK-4079           
1 52666U 22053L   26065.32029850 -.00000445  00000+0 -98725-5 0  9995
2 52666  53.2173 168.8614 0001295  94.1686 265.9454 15.08836659210541
STARLINK-4076           
1 52667U 22053M   26066.00850248  .00002125  00000+0  15152-3 0  9991
2 52667  53.2166 166.1587 0001358  84.1788 275.9359 15.08844999210648
STARLINK-4067           
1 52668U 22053N   26065.55218470 -.00000480  00000+0 -12037-4 0  9990
2 52668  53.2162 168.2088 0001287  77.0410 283.0726 15.08849945210574
STARLINK-3972           
1 52669U 22053P   26065.26883002  .00001023  00000+0  82355-4 0  9990
2 52669  53.2169 169.4783 0001100  82.1020 278.0097 15.08837937210523
STARLINK-4075           
1 52670U 22053Q   26065.55586674  .00001218  00000+0  94581-4 0  9999
2 52670  53.2167 168.2576 0001320  87.9030 272.2113 15.08844549210575
STARLINK-4071           
1 52671U 22053R   26065.99378479  .00000421  00000+0  44558-4 0  9994
2 52671  53.2174 166.2226 0001075  92.5892 267.5223 15.08837739210638
STARLINK-4073           
1 52672U 22053S   26066.00482333 -.00003241  00000+0 -18566-3 0  9997
2 52672  53.2191 166.1728 0001218 112.4602 247.6519 15.08839155210635
STARLINK-3976           
1 52673U 22053T   26065.32402910  .00000488  00000+0  48735-4 0  9995
2 52673  53.2179 169.2292 0001226  89.0290 271.0843 15.08833565210532
STARLINK-3936           
1 52674U 22053U   26066.00114020  .00001193  00000+0  93044-4 0  9991
2 52674  53.2168 166.1913 0001113  89.5053 270.6067 15.08843120210647
STARLINK-3934           
1 52675U 22053V   26065.25502421 -.00000337  00000+0 -30951-5 0  9994
2 52675  53.2159 159.5408 0001185  80.3264 279.7863 15.08839556210658
STARLINK-4006           
1 52676U 22053W   26064.59906719  .00001248  00000+0  96505-4 0  9995
2 52676  53.2177 172.4830 0001182  90.3294 269.7833 15.08828649210425
STARLINK-4074           
1 52678U 22053Y   26065.79599494 -.00000313  00000+0 -16036-5 0  9994
2 52678  53.2178 157.2187 0001287  91.5639 268.5501 15.08844899210734
STARLINK-4031           
1 52679U 22053Z   26065.63406415  .00001879  00000+0  13614-3 0  9991
2 52679  53.2174 157.8407 0001341  82.3803 277.7341 15.08831369210679
